ISS OBJECT XX           
1 66911U 98067XX  26066.99336320  .00311474  00000+0  20292-2 0  9994
2 66911  51.6211  72.7968 0007035  71.7783 288.3981 15.74403180 14926
ISS OBJECT XY           
1 66912U 98067XY  26067.04763292  .00117853  00000+0  12442-2 0  9997
2 66912  51.6266  75.4404 0003164  78.4704 281.6646 15.63326659 14891
ISS OBJECT XZ           
1 67683U 98067XZ  26067.05321388  .00051106  00000+0  84448-3 0  9994
2 67683  51.6304  79.9800 0009473 180.1089 179.9900 15.51675990  4539
GXIBA-1                 
1 67684U 98067YA  26067.02850806  .00102065  00000+0  15323-2 0  9990
2 67684  51.6303  79.8160 0010870 170.2751 189.8452 15.54014167  4534
CORAL                   
1 67685U 98067YB  26067.04915450  .00057263  00000+0  93240-3 0  9994
2 67685  51.6306  79.9523 0011437 177.0714 183.0344 15.52015195  4532
ISS OBJECT YC           
1 67686U 98067YC  26067.10855220  .00070562  00000+0  11259-2 0  9996
2 67686  51.6308  79.6014 0007881 144.5542 215.5973 15.52527310  4540
LEOPARD                 
1 67687U 98067YD  26067.05105954  .00053141  00000+0  87276-3 0  9990
2 67687  51.6310  79.9667 0007880 149.0088 211.1368 15.51844798  4456
ISS OBJECT YE           
1 67688U 98067YE  26067.11080001  .00064151  00000+0  10339-2 0  9991
2 67688  51.6306  79.6163 0007833 145.3390 214.8112 15.52291499  4466
CREW DRAGON 12          
1 67796U 26031A   26066.77087839  .00014056  00000+0  26707-3 0  9996
2 67796  51.6320  81.8427 0008117 167.9196 192.1989 15.48514260555921
